EOS-6 (OCEANSAT-3)      
1 54361U 22158A   22359.51619833  .00059712  00000+0  16271-1 0  9995
2 54361  98.3544  93.8662 0001816  82.7362 277.4180 14.47035633  4225
2022-158B               
1 54362U 22158B   22357.62175338  .00004359  00000+0  22292-3 0  9992
2 54362  97.4624  92.5508 0024538 151.5724 208.6637 15.16908040  4134
THYBOLT-1               
1 54363U 22158C   22359.50750277  .00013779  00000+0  64473-3 0  9996
2 54363  97.4482  94.3207 0012218 155.7188 328.8544 15.19800273  4421
THYBOLT-2               
1 54364U 22158D   22359.49496617  .00013639  00000+0  63826-3 0  9996
2 54364  97.4478  94.3100 0012015 155.5342 261.0672 15.19800530  4420
INS-2B                  
1 54365U 22158E   22359.56884488  .00013157  00000+0  61192-3 0  9991
2 54365  97.4445  94.3693 0012163 164.5985 320.3040 15.20020574  4432
ANAND                   
1 54366U 22158F   22359.56561428  .00011201  00000+0  52004-3 0  9998
2 54366  97.4419  94.3633 0011227 164.0593 321.0659 15.20129221  4431
ASTROCAST-0304          
1 54367U 22158G   22359.55920576  .00006969  00000+0  32315-3 0  9999
2 54367  97.4468  94.3981 0009403 162.2916 323.4455 15.20335712  4427
ASTROCAST-0303          
1 54368U 22158H   22359.55761271  .00006183  00000+0  28656-3 0  9996
2 54368  97.4483  94.4089 0009109 170.3159 315.5192 15.20406184  4430
ASTROCAST-0302          
1 54369U 22158J   22359.55372418  .00006979  00000+0  31993-3 0  9999
2 54369  97.4487  94.4154 0008945 175.3924 310.7995 15.20738458  4430
ASTROCAST-0301          
1 54370U 22158K   22359.55133539  .00005806  00000+0  26619-3 0  9997
2 54370  97.4489  94.4202 0009287 180.8971 307.3205 15.20805816  4430
DRAGON CRS-26           
1 54371U 22159A   22357.56376573  .00009640  00000+0  17942-3 0  9994
2 54371  51.6419 118.4508 0005698 179.4554 285.1029 15.49550321374554
2022-160A               
1 54372U 22160A   22359.46335648  .00013409  00000+0  56597-3 0  9993
2 54372  34.9997  52.1323 0006029 135.3143  61.3481 15.22455989  4262
2022-160B               
1 54373U 22160B   22359.56904336  .00023154  00000+0  92249-3 0  9993
2 54373  34.9995  51.2208 0007716 151.5301 359.2151 15.24299550  4280
2022-160C               
1 54374U 22160C   22359.58453900  .00009850  00000+0  41482-3 0  9992
2 54374  35.0004  51.4126 0004768 126.6622 358.9562 15.22588455  4249
2022-160D               
1 54375U 22160D   22359.49330492  .00024799  00000+0  97609-3 0  9994
2 54375  35.0011  51.6087 0008485 159.4474 328.4024 15.24688853  4278
2022-160E               
1 54376U 22160E   22359.45422248  .00014326  00000+0  60227-3 0  9993
2 54376  35.0010  52.2448 0007442 150.3526 336.1451 15.22570488  4267
COSMOS 2564 [GLONASS-M] 
1 54377U 22161A   22359.26398519  .00000062  00000+0  00000+0 0  9998
2 54377  64.7749 235.0360 0007033 216.8745  19.8216  2.13102205   564
FREGAT R/B              
1 54378U 22161B   22332.88538517  .00000006  00000+0  00000+0 0  9990
2 54378  64.7543 235.8312 0069964  61.3586  78.3433  2.10629160    00
SHENZHOU-15             
1 54379U 22162A   22357.17715278  .00018343  00000+0  22590-3 0  9997
2 54379  41.4752 148.4058 0004079 197.4974 151.7162 15.59779644 94300
COSMOS 2565             
1 54381U 22163A   22359.22661979 -.00000001  00000+0  53726-4 0  9996
2 54381  67.1555 313.8935 0006813 264.7160  95.3127 13.96674036  3429
SL-4 R/B                
1 54382U 22163B   22359.46046602  .00119888  72420-5  59167-3 0  9991
2 54382  67.1339 302.4497 0443590  69.5321 295.2854 15.08086362  3707
2022-163C               
1 54383U 22163C   22359.64840595 -.00000002  00000+0  52344-4 0  9993
2 54383  67.1427 312.8018 0011612 312.6602  47.3503 13.97326957  3171
1998-067UL              
1 54534U 98067UL  22358.36257790  .00046197  00000+0  74756-3 0  9998
2 54534  51.6451 114.2610 0005772 206.8572 153.1940 15.52335194  3476
1998-067UM              
1 54535U 98067UM  22359.47185399  .00055172  00000+0  87805-3 0  9999
2 54535  51.6426 108.7157 0005012 210.3960 242.9367 15.52725564  3644
1998-067UN              
1 54536U 98067UN  22359.47451081  .00042871  00000+0  69622-3 0  9993
2 54536  51.6435 108.7341 0005561 208.8945 243.7537 15.52270404  3606
1998-067UP              
1 54537U 98067UP  22359.47323186  .00047895  00000+0  77025-3 0  9995
2 54537  51.6424 108.7214 0005370 210.0389 244.8834 15.52494255  3647
2022-164A               
1 54588U 22164A   22359.17418083  .00000802  00000+0  24441-3 0  9995
2 54588  98.3559  26.2501 0008948 220.1564 139.8957 14.44548458  2625
KZ-11 R/B               
1 54589U 22164B   22359.54479248  .00019181  22538-5  21539-3 0  9998
2 54589  98.3683  28.5912 0379250  43.3486 319.6913 15.08083987  2790
2022-165A               
1 54640U 22165A   22359.54544269  .00000537  00000+0  12724-3 0  9998
2 54640  98.1181 297.6685 0001033  94.9031 265.2268 14.57768587  2455
2022-165B               
1 54641U 22165B   22359.20455401  .00000630  00000+0  12457-3 0  9998
2 54641  98.0295 297.2065 0033481 249.5934 110.1680 14.65366161  2403
ONEWEB-0527             
1 54642U 22166A   22359.41821413  .00002187  00000+0  21721-3 0  9996
2 54642  86.5174 151.0644 0008605 173.2386 186.8959 14.91207243  2779
ONEWEB-0528             
1 54643U 22166B   22359.41840925  .00002217  00000+0  22036-3 0  9990
2 54643  86.5188 151.0671 0008565 173.8224 186.3111 14.91191364  2778
ONEWEB-0539             
1 54644U 22166C   22359.41537817  .00002351  00000+0  23213-3 0  9991
2 54644  86.5171 151.0604 0009950 172.2317 187.9067 14.91467653  2776
ONEWEB-0540             
1 54645U 22166D   22359.35252620  .00002253  00000+0  22465-3 0  9990
2 54645  86.5153 151.0900 0008334 176.9036 183.2245 14.91079311  2744
ONEWEB-0542             
1 54646U 22166E   22359.40523146  .00002052  00000+0  19746-3 0  9996
2 54646  86.5176 151.0568 0013172 182.3248 177.7921 14.92388970  2757
ONEWEB-0545             
1 54647U 22166F   22359.35190312  .00002370  00000+0  23610-3 0  9994
2 54647  86.5156 151.0906 0008458 175.5297 184.6008 14.91136996  2741
ONEWEB-0580             
1 54648U 22166G   22359.40813296  .00001997  00000+0  19340-3 0  9993
2 54648  86.5162 151.0574 0012818 179.8271 180.2964 14.92123875  2751
ONEWEB-0582             
1 54649U 22166H   22359.34642355  .00002310  00000+0  22711-3 0  9999
2 54649  86.5170 151.0881 0010708 173.0670 187.0708 14.91635576  2742
ONEWEB-0583             
1 54650U 22166J   22359.21059076  .00002227  00000+0  21793-3 0  9995
2 54650  86.5174 151.1493 0011323 173.5046 186.6331 14.91789506  2722
ONEWEB-0584             
1 54651U 22166K   22359.21135721  .00002260  00000+0  22159-3 0  9992
2 54651  86.5169 151.1470 0011010 173.8839 186.2526 14.91721060  3160
ONEWEB-0585             
1 54652U 22166L   22359.41568257  .00002296  00000+0  22688-3 0  9995
2 54652  86.5176 151.0633 0009797 172.1248 188.0136 14.91439972  2753
ONEWEB-0586             
1 54653U 22166M   22359.42132858  .00002285  00000+0  22875-3 0  9997
2 54653  86.5193 151.0704 0007872 180.6912 179.4306 14.90925147  2752
ONEWEB-0587             
1 54654U 22166N   22359.41408709  .00002219  00000+0  21836-3 0  9991
2 54654  86.5181 151.0652 0010475 172.2905 187.8486 14.91583172  2755
ONEWEB-0589             
1 54655U 22166P   22359.40580714  .00000874  00000+0  82511-4 0  9991
2 54655  86.5167 151.0568 0013113 182.1722 177.9451 14.92341113  2755
ONEWEB-0590             
1 54656U 22166Q   22359.40669694  .00002214  00000+0  21400-3 0  9996
2 54656  86.5160 151.0563 0012811 181.0781 179.0422 14.92255784  2750
ONEWEB-0591             
1 54657U 22166R   22359.40703592  .00002106  00000+0  20357-3 0  9993
2 54657  86.5192 151.0595 0012752 180.6084 179.5130 14.92229006  2755
ONEWEB-0592             
1 54658U 22166S   22359.58334491 -.00972961  00000+0 -12381+0 0  9992
2 54658  86.4800 150.9902 0007817 179.1569 300.9473 14.84686640  1300
ONEWEB-0593             
1 54659U 22166T   22359.58334491 -.00057056  00000+0 -57244-2 0  9992
2 54659  86.5181 150.9894 0010918 172.5749  20.6156 14.91696468  1308
ONEWEB-0594             
1 54660U 22166U   22359.27510391  .00002132  00000+0  20719-3 0  9996
2 54660  86.5175 151.1185 0012270 177.5289 182.6001 14.92023915  2734
ONEWEB-0595             
1 54661U 22166V   22359.41294225  .00002189  00000+0  21477-3 0  9992
2 54661  86.5183 151.0648 0010886 173.1033 187.0347 14.91688264  2754
ONEWEB-0596             
1 54662U 22166W   22359.41461609  .00002235  00000+0  22018-3 0  9999
2 54662  86.5168 151.0589 0010272 172.0126 188.1267 14.91535422  2752
ONEWEB-0597             
1 54663U 22166X   22359.27347193  .00002054  00000+0  19872-3 0  9998
2 54663  86.5159 151.1158 0012706 180.0107 180.1123 14.92175387  2730
ONEWEB-0600             
1 54664U 22166Y   22359.27187633  .00002485  00000+0  24019-3 0  9997
2 54664  86.5164 151.1160 0012934 182.5644 177.5520 14.92323727  2730
ONEWEB-0601             
1 54665U 22166Z   22359.40779821  .00002133  00000+0  20661-3 0  9998
2 54665  86.5190 151.0598 0012673 179.1204 181.0049 14.92157882  2753
ONEWEB-0602             
1 54666U 22166AA  22359.27421006  .00002222  00000+0  21567-3 0  9998
2 54666  86.5187 151.1188 0012540 178.7365 181.3897 14.92107096  2736
ONEWEB-0603             
1 54667U 22166AB  22359.58334491 -.01070927  00000+0 -13984+0 0  9994
2 54667  86.5319 151.0033 0008359 180.0086 286.1134 14.83424806  1302
ONEWEB-0604             
1 54668U 22166AC  22359.58334491 -.00946279  00000+0 -11757+0 0  9992
2 54668  86.4853 150.9992 0007969 177.9039 311.8677 14.85582036  1306
ONEWEB-0605             
1 54669U 22166AD  22359.58334491 -.01064698  00000+0 -14081+0 0  9993
2 54669  86.5345 151.0073 0007746 182.6632 276.9128 14.82887497  1309
ONEWEB-0606             
1 54670U 22166AE  22359.58334491 -.00950729  00000+0 -11614+0 0  9992
2 54670  86.4890 150.9973 0008279 175.9252 325.1635 14.86283323  1309
